ATLAS CENTAUR 2         
1 00694U 63047A   26025.49181955  .00002091  00000+0  24649-3 0  9995
2 00694  30.3531  77.0287 0548174  59.6392 305.7255 14.11942457125519
THOR AGENA D R/B        
1 00733U 64002A   26026.30896919  .00000373  00000+0  15015-3 0  9993
2 00733  99.1227  37.3404 0033299  23.5060 336.7636 14.33991028232223
SL-3 R/B                
1 00877U 64053B   26025.50927625  .00000599  00000+0  14031-3 0  9995
2 00877  65.0770  97.8291 0077374 305.9752  53.4189 14.61320199260480
SL-8 R/B                
1 02802U 67045B   26026.29189921  .00000406  00000+0  11986-3 0  9998
2 02802  74.0101  67.2691 0062844  84.6358 276.1965 14.45583273 82891
SL-8 R/B                
1 03230U 68040B   26026.31215232  .00005681  00000+0  42295-3 0  9995
2 03230  74.0313  40.2603 0025999 235.6765 124.1963 15.02907632 83643
OAO 2                   
1 03597U 68110A   26025.73441366  .00000531  00000+0  14829-3 0  9994
2 03597  34.9926 145.0460 0005825 218.9876 141.0396 14.47277666 12872
ISIS 1                  
1 03669U 69009A   26026.32041667  .00000615  00000+0  43088-3 0  9990
2 03669  88.4540 159.9255 1707867 174.6545 187.5663 11.30389711343740
SERT 2                  
1 04327U 70009A   26026.29601802  .00000074  00000+0  15842-3 0  9999
2 04327  99.2706 331.7220 0004013 276.3336 204.7211 13.58725110774139
SL-3 R/B                
1 05118U 71028B   26026.17662052  .00044873  00000+0  59707-3 0  9994
2 05118  81.2365 104.4065 0017930  82.6234 277.7054 15.57775569982049
ASTEX 1                 
1 05560U 71089A   26026.26477831  .00001037  00000+0  26409-3 0  9999
2 05560  92.7157 138.0313 0014076 221.8227 138.1904 14.50713248856156
SL-8 R/B                
1 05730U 71119B   26026.05604784  .00008915  00000+0  46351-3 0  9998
2 05730  73.8863 255.3408 0555335 230.6861 124.3810 14.36682748649367
OAO 3 (COPERNICUS)      
1 06153U 72065A   26026.15051947  .00000743  00000+0  15701-3 0  9993
2 06153  35.0042 179.6696 0006471 178.8151 347.5565 14.59955959839976
