CCSDS_OMM_VERS = 2.0
CREATION_DATE  = 
ORIGINATOR     = 

OBJECT_NAME    = ATLAS CENTAUR 2
OBJECT_ID      = 1963-047A
CENTER_NAME    = EARTH
REF_FRAME      = TEME
TIME_SYSTEM    = UTC
MEAN_ELEMENT_THEORY = SGP/SGP4

EPOCH          = 2026-01-25T11:48:13.209120
MEAN_MOTION    = 14.11942457
ECCENTRICITY   = .05481742
INCLINATION    = 30.3531
RA_OF_ASC_NODE = 77.0287
ARG_OF_PERICENTER = 59.6392
MEAN_ANOMALY   = 305.7255

EPHEMERIS_TYPE = 0
CLASSIFICATION_TYPE = U
NORAD_CAT_ID   = 694
ELEMENT_SET_NO = 999
REV_AT_EPOCH   = 12551
BSTAR          = .24649321E-3
MEAN_MOTION_DOT = .2091E-4
MEAN_MOTION_DDOT = 0

CCSDS_OMM_VERS = 2.0
CREATION_DATE  = 
ORIGINATOR     = 

OBJECT_NAME    = THOR AGENA D R/B
OBJECT_ID      = 1964-002A
CENTER_NAME    = EARTH
REF_FRAME      = TEME
TIME_SYSTEM    = UTC
MEAN_ELEMENT_THEORY = SGP/SGP4

EPOCH          = 2026-01-26T07:24:54.938016
MEAN_MOTION    = 14.33991028
ECCENTRICITY   = .00332992
INCLINATION    = 99.1227
RA_OF_ASC_NODE = 37.3404
ARG_OF_PERICENTER = 23.5060
MEAN_ANOMALY   = 336.7636

EPHEMERIS_TYPE = 0
CLASSIFICATION_TYPE = U
NORAD_CAT_ID   = 733
ELEMENT_SET_NO = 999
REV_AT_EPOCH   = 23222
BSTAR          = .15015044E-3
MEAN_MOTION_DOT = .373E-5
MEAN_MOTION_DDOT = 0

CCSDS_OMM_VERS = 2.0
CREATION_DATE  = 
ORIGINATOR     = 

OBJECT_NAME    = SL-3 R/B
OBJECT_ID      = 1964-053B
CENTER_NAME    = EARTH
REF_FRAME      = TEME
TIME_SYSTEM    = UTC
MEAN_ELEMENT_THEORY = SGP/SGP4

EPOCH          = 2026-01-25T12:13:21.468000
MEAN_MOTION    = 14.61320199
ECCENTRICITY   = .00773746
INCLINATION    = 65.0770
RA_OF_ASC_NODE = 97.8291
ARG_OF_PERICENTER = 305.9752
MEAN_ANOMALY   = 53.4189

EPHEMERIS_TYPE = 0
CLASSIFICATION_TYPE = U
NORAD_CAT_ID   = 877
ELEMENT_SET_NO = 999
REV_AT_EPOCH   = 26048
BSTAR          = .14030621E-3
MEAN_MOTION_DOT = .599E-5
MEAN_MOTION_DDOT = 0

CCSDS_OMM_VERS = 2.0
CREATION_DATE  = 
ORIGINATOR     = 

OBJECT_NAME    = SL-8 R/B
OBJECT_ID      = 1967-045B
CENTER_NAME    = EARTH
REF_FRAME      = TEME
TIME_SYSTEM    = UTC
MEAN_ELEMENT_THEORY = SGP/SGP4

EPOCH          = 2026-01-26T07:00:20.091744
MEAN_MOTION    = 14.45583273
ECCENTRICITY   = .00628443
INCLINATION    = 74.0101
RA_OF_ASC_NODE = 67.2691
ARG_OF_PERICENTER = 84.6358
MEAN_ANOMALY   = 276.1965

EPHEMERIS_TYPE = 0
CLASSIFICATION_TYPE = U
NORAD_CAT_ID   = 2802
ELEMENT_SET_NO = 999
REV_AT_EPOCH   = 8289
BSTAR          = .11986246E-3
MEAN_MOTION_DOT = .406E-5
MEAN_MOTION_DDOT = 0

CCSDS_OMM_VERS = 2.0
CREATION_DATE  = 
ORIGINATOR     = 

OBJECT_NAME    = SL-8 R/B
OBJECT_ID      = 1968-040B
CENTER_NAME    = EARTH
REF_FRAME      = TEME
TIME_SYSTEM    = UTC
MEAN_ELEMENT_THEORY = SGP/SGP4

EPOCH          = 2026-01-26T07:29:29.960448
MEAN_MOTION    = 15.02907632
ECCENTRICITY   = .00259995
INCLINATION    = 74.0313
RA_OF_ASC_NODE = 40.2603
ARG_OF_PERICENTER = 235.6765
MEAN_ANOMALY   = 124.1963

EPHEMERIS_TYPE = 0
CLASSIFICATION_TYPE = U
NORAD_CAT_ID   = 3230
ELEMENT_SET_NO = 999
REV_AT_EPOCH   = 8364
BSTAR          = .42294882E-3
MEAN_MOTION_DOT = .5681E-4
MEAN_MOTION_DDOT = 0

CCSDS_OMM_VERS = 2.0
CREATION_DATE  = 
ORIGINATOR     = 

OBJECT_NAME    = OAO 2
OBJECT_ID      = 1968-110A
CENTER_NAME    = EARTH
REF_FRAME      = TEME
TIME_SYSTEM    = UTC
MEAN_ELEMENT_THEORY = SGP/SGP4

EPOCH          = 2026-01-25T17:37:33.340224
MEAN_MOTION    = 14.47277666
ECCENTRICITY   = .0005825
INCLINATION    = 34.9926
RA_OF_ASC_NODE = 145.0460
ARG_OF_PERICENTER = 218.9876
MEAN_ANOMALY   = 141.0396

EPHEMERIS_TYPE = 0
CLASSIFICATION_TYPE = U
NORAD_CAT_ID   = 3597
ELEMENT_SET_NO = 999
REV_AT_EPOCH   = 1287
BSTAR          = .14829414E-3
MEAN_MOTION_DOT = .531E-5
MEAN_MOTION_DDOT = 0

CCSDS_OMM_VERS = 2.0
CREATION_DATE  = 
ORIGINATOR     = 

OBJECT_NAME    = ISIS 1
OBJECT_ID      = 1969-009A
CENTER_NAME    = EARTH
REF_FRAME      = TEME
TIME_SYSTEM    = UTC
MEAN_ELEMENT_THEORY = SGP/SGP4

EPOCH          = 2026-01-26T07:41:24.000288
MEAN_MOTION    = 11.30389711
ECCENTRICITY   = .17078679
INCLINATION    = 88.4540
RA_OF_ASC_NODE = 159.9255
ARG_OF_PERICENTER = 174.6545
MEAN_ANOMALY   = 187.5663

EPHEMERIS_TYPE = 0
CLASSIFICATION_TYPE = U
NORAD_CAT_ID   = 3669
ELEMENT_SET_NO = 999
REV_AT_EPOCH   = 34374
BSTAR          = .43088226E-3
MEAN_MOTION_DOT = .615E-5
MEAN_MOTION_DDOT = 0

CCSDS_OMM_VERS = 2.0
CREATION_DATE  = 
ORIGINATOR     = 

OBJECT_NAME    = SERT 2
OBJECT_ID      = 1970-009A
CENTER_NAME    = EARTH
REF_FRAME      = TEME
TIME_SYSTEM    = UTC
MEAN_ELEMENT_THEORY = SGP/SGP4

EPOCH          = 2026-01-26T07:06:15.956928
MEAN_MOTION    = 13.58725110
ECCENTRICITY   = .00040132
INCLINATION    = 99.2706
RA_OF_ASC_NODE = 331.7220
ARG_OF_PERICENTER = 276.3336
MEAN_ANOMALY   = 204.7211

EPHEMERIS_TYPE = 0
CLASSIFICATION_TYPE = U
NORAD_CAT_ID   = 4327
ELEMENT_SET_NO = 999
REV_AT_EPOCH   = 77413
BSTAR          = .15841653E-3
MEAN_MOTION_DOT = .74E-6
MEAN_MOTION_DDOT = 0

CCSDS_OMM_VERS = 2.0
CREATION_DATE  = 
ORIGINATOR     = 

OBJECT_NAME    = SL-3 R/B
OBJECT_ID      = 1971-028B
CENTER_NAME    = EARTH
REF_FRAME      = TEME
TIME_SYSTEM    = UTC
MEAN_ELEMENT_THEORY = SGP/SGP4

EPOCH          = 2026-01-26T04:14:20.012928
MEAN_MOTION    = 15.57775569
ECCENTRICITY   = .00179308
INCLINATION    = 81.2365
RA_OF_ASC_NODE = 104.4065
ARG_OF_PERICENTER = 82.6234
MEAN_ANOMALY   = 277.7054

EPHEMERIS_TYPE = 0
CLASSIFICATION_TYPE = U
NORAD_CAT_ID   = 5118
ELEMENT_SET_NO = 999
REV_AT_EPOCH   = 98204
BSTAR          = .5970683E-3
MEAN_MOTION_DOT = .44873E-3
MEAN_MOTION_DDOT = 0

CCSDS_OMM_VERS = 2.0
CREATION_DATE  = 
ORIGINATOR     = 

OBJECT_NAME    = ASTEX 1
OBJECT_ID      = 1971-089A
CENTER_NAME    = EARTH
REF_FRAME      = TEME
TIME_SYSTEM    = UTC
MEAN_ELEMENT_THEORY = SGP/SGP4

EPOCH          = 2026-01-26T06:21:16.845984
MEAN_MOTION    = 14.50713248
ECCENTRICITY   = .00140764
INCLINATION    = 92.7157
RA_OF_ASC_NODE = 138.0313
ARG_OF_PERICENTER = 221.8227
MEAN_ANOMALY   = 138.1904

EPHEMERIS_TYPE = 0
CLASSIFICATION_TYPE = U
NORAD_CAT_ID   = 5560
ELEMENT_SET_NO = 999
REV_AT_EPOCH   = 85615
BSTAR          = .26408777E-3
MEAN_MOTION_DOT = .1037E-4
MEAN_MOTION_DDOT = 0

CCSDS_OMM_VERS = 2.0
CREATION_DATE  = 
ORIGINATOR     = 

OBJECT_NAME    = SL-8 R/B
OBJECT_ID      = 1971-119B
CENTER_NAME    = EARTH
REF_FRAME      = TEME
TIME_SYSTEM    = UTC
MEAN_ELEMENT_THEORY = SGP/SGP4

EPOCH          = 2026-01-26T01:20:42.533376
MEAN_MOTION    = 14.36682748
ECCENTRICITY   = .0555335
INCLINATION    = 73.8863
RA_OF_ASC_NODE = 255.3408
ARG_OF_PERICENTER = 230.6861
MEAN_ANOMALY   = 124.3810

EPHEMERIS_TYPE = 0
CLASSIFICATION_TYPE = U
NORAD_CAT_ID   = 5730
ELEMENT_SET_NO = 999
REV_AT_EPOCH   = 64936
BSTAR          = .46351285E-3
MEAN_MOTION_DOT = .8915E-4
MEAN_MOTION_DDOT = 0

CCSDS_OMM_VERS = 2.0
CREATION_DATE  = 
ORIGINATOR     = 

OBJECT_NAME    = OAO 3 (COPERNICUS)
OBJECT_ID      = 1972-065A
CENTER_NAME    = EARTH
REF_FRAME      = TEME
TIME_SYSTEM    = UTC
MEAN_ELEMENT_THEORY = SGP/SGP4

EPOCH          = 2026-01-26T03:36:44.882208
MEAN_MOTION    = 14.59955959
ECCENTRICITY   = .00064719
INCLINATION    = 35.0042
RA_OF_ASC_NODE = 179.6696
ARG_OF_PERICENTER = 178.8151
MEAN_ANOMALY   = 347.5565

EPHEMERIS_TYPE = 0
CLASSIFICATION_TYPE = U
NORAD_CAT_ID   = 6153
ELEMENT_SET_NO = 999
REV_AT_EPOCH   = 83997
BSTAR          = .15700648E-3
MEAN_MOTION_DOT = .743E-5
MEAN_MOTION_DDOT = 0

